{
  "type": "FeatureCollection",
  "features": [
    {
      "type": "Feature",
      "properties": {
        "norad_id": 31175,
        "name": "FENGYUN 1C DEB",
        "group": "fengyun-1c-debris",
        "lat": 76.86613331540791,
        "lon": -38.743516957860706,
        "alt_km": 645.8586623392639,
        "timestamp": "2025-12-26T04:40:06.067364+00:00",
        "meta_object_name": "FENGYUN 1C DEB",
        "meta_object_id": "1999-025BJD",
        "meta_epoch": "2025-12-25T05:17:08.329920",
        "meta_mean_motion": 14.60514995,
        "meta_eccentricity": 0.007447,
        "meta_inclination": 98.3994,
        "meta_ra_of_asc_node": 359.5584,
        "meta_arg_of_pericenter": 126.5751,
        "meta_mean_anomaly": 234.2332,
        "meta_ephemeris_type": 0,
        "meta_classification_type": "U",
        "meta_norad_cat_id": 31175,
        "meta_element_set_no": 999,
        "meta_rev_at_epoch": 65821,
        "meta_bstar": 0.0042719,
        "meta_mean_motion_dot": 0.00021568,
        "meta_mean_motion_ddot": 0,
        "tle_line1": "1 31175U 99025BJD 25359.22023530  .00021568  00000+0  42719-2 0  9999",
        "tle_line2": "2 31175  98.3994 359.5584 0074470 126.5751 234.2332 14.60514995658214"
      },
      "geometry": {
        "type": "Point",
        "coordinates": [
          -38.743516957860706,
          76.86613331540791
        ]
      }
    },
    {
      "type": "Feature",
      "properties": {
        "norad_id": 31177,
        "name": "FENGYUN 1C DEB",
        "group": "fengyun-1c-debris",
        "lat": 12.052436531243385,
        "lon": -89.58891619875553,
        "alt_km": 1033.8949475213267,
        "timestamp": "2025-12-26T04:40:06.067374+00:00",
        "meta_object_name": "FENGYUN 1C DEB",
        "meta_object_id": "1999-025BJF",
        "meta_epoch": "2025-12-23T05:09:05.978592",
        "meta_mean_motion": 13.62419346,
        "meta_eccentricity": 0.03079136,
        "meta_inclination": 98.7579,
        "meta_ra_of_asc_node": 269.6149,
        "meta_arg_of_pericenter": 286.8418,
        "meta_mean_anomaly": 234.2152,
        "meta_ephemeris_type": 0,
        "meta_classification_type": "U",
        "meta_norad_cat_id": 31177,
        "meta_element_set_no": 999,
        "meta_rev_at_epoch": 66354,
        "meta_bstar": 0.0047506015,
        "meta_mean_motion_dot": 5.027e-05,
        "meta_mean_motion_ddot": 0,
        "tle_line1": "1 31177U 99025BJF 25357.21465253  .00005027  00000+0  47506-2 0  9991",
        "tle_line2": "2 31177  98.7579 269.6149 0307913 286.8418 234.2152 13.62419346663545"
      },
      "geometry": {
        "type": "Point",
        "coordinates": [
          -89.58891619875553,
          12.052436531243385
        ]
      }
    },
    {
      "type": "Feature",
      "properties": {
        "norad_id": 31178,
        "name": "FENGYUN 1C DEB",
        "group": "fengyun-1c-debris",
        "lat": 75.67428561057353,
        "lon": -135.46912733350317,
        "alt_km": 900.5910192439287,
        "timestamp": "2025-12-26T04:40:06.067385+00:00",
        "meta_object_name": "FENGYUN 1C DEB",
        "meta_object_id": "1999-025BJG",
        "meta_epoch": "2025-12-24T18:25:23.466144",
        "meta_mean_motion": 14.22312669,
        "meta_eccentricity": 0.01257039,
        "meta_inclination": 99.5133,
        "meta_ra_of_asc_node": 1.9482,
        "meta_arg_of_pericenter": 281.5978,
        "meta_mean_anomaly": 77.1109,
        "meta_ephemeris_type": 0,
        "meta_classification_type": "U",
        "meta_norad_cat_id": 31178,
        "meta_element_set_no": 999,
        "meta_rev_at_epoch": 95986,
        "meta_bstar": 0.0018200205,
        "meta_mean_motion_dot": 4.336e-05,
        "meta_mean_motion_ddot": 0,
        "tle_line1": "1 31178U 99025BJG 25358.76763271  .00004336  00000+0  18200-2 0  9995",
        "tle_line2": "2 31178  99.5133   1.9482 0125703 281.5978  77.1109 14.22312669959862"
      },
      "geometry": {
        "type": "Point",
        "coordinates": [
          -135.46912733350317,
          75.67428561057353
        ]
      }
    },
    {
      "type": "Feature",
      "properties": {
        "norad_id": 31179,
        "name": "FENGYUN 1C DEB",
        "group": "fengyun-1c-debris",
        "lat": -75.62853500678551,
        "lon": 58.07091509790135,
        "alt_km": 812.3308264570614,
        "timestamp": "2025-12-26T04:40:06.067395+00:00",
        "meta_object_name": "FENGYUN 1C DEB",
        "meta_object_id": "1999-025BJH",
        "meta_epoch": "2025-12-18T07:16:13.358496",
        "meta_mean_motion": 13.91941548,
        "meta_eccentricity": 0.02152306,
        "meta_inclination": 99.0195,
        "meta_ra_of_asc_node": 12.0814,
        "meta_arg_of_pericenter": 345.6132,
        "meta_mean_anomaly": 13.8961,
        "meta_ephemeris_type": 0,
        "meta_classification_type": "U",
        "meta_norad_cat_id": 31179,
        "meta_element_set_no": 999,
        "meta_rev_at_epoch": 62018,
        "meta_bstar": 0.00082156675,
        "meta_mean_motion_dot": 1.222e-05,
        "meta_mean_motion_ddot": 0,
        "tle_line1": "1 31179U 99025BJH 25352.30293239  .00001222  00000+0  82157-3 0  9996",
        "tle_line2": "2 31179  99.0195  12.0814 0215230 345.6132  13.8961 13.91941548620189"
      },
      "geometry": {
        "type": "Point",
        "coordinates": [
          58.07091509790135,
          -75.62853500678551
        ]
      }
    },
    {
      "type": "Feature",
      "properties": {
        "norad_id": 31180,
        "name": "FENGYUN 1C DEB",
        "group": "fengyun-1c-debris",
        "lat": 69.27910169158203,
        "lon": 105.81496494775374,
        "alt_km": 729.9055113464092,
        "timestamp": "2025-12-26T04:40:06.067405+00:00",
        "meta_object_name": "FENGYUN 1C DEB",
        "meta_object_id": "1999-025BJJ",
        "meta_epoch": "2025-12-25T02:56:06.052128",
        "meta_mean_motion": 13.70352181,
        "meta_eccentricity": 0.04978868,
        "meta_inclination": 99.2183,
        "meta_ra_of_asc_node": 130.2046,
        "meta_arg_of_pericenter": 27.5852,
        "meta_mean_anomaly": 153.0216,
        "meta_ephemeris_type": 0,
        "meta_classification_type": "U",
        "meta_norad_cat_id": 31180,
        "meta_element_set_no": 999,
        "meta_rev_at_epoch": 64236,
        "meta_bstar": 0.00018511996,
        "meta_mean_motion_dot": 3.49e-06,
        "meta_mean_motion_ddot": 0,
        "tle_line1": "1 31180U 99025BJJ 25359.12229227  .00000349  00000+0  18512-3 0  9994",
        "tle_line2": "2 31180  99.2183 130.2046 0497886  27.5852 153.0216 13.70352181642364"
      },
      "geometry": {
        "type": "Point",
        "coordinates": [
          105.81496494775374,
          69.27910169158203
        ]
      }
    },
    {
      "type": "Feature",
      "properties": {
        "norad_id": 31181,
        "name": "FENGYUN 1C DEB",
        "group": "fengyun-1c-debris",
        "lat": 13.861411253827224,
        "lon": -145.3596319017524,
        "alt_km": 875.3701482559472,
        "timestamp": "2025-12-26T04:40:06.067415+00:00",
        "meta_object_name": "FENGYUN 1C DEB",
        "meta_object_id": "1999-025BJK",
        "meta_epoch": "2025-12-24T01:00:26.112960",
        "meta_mean_motion": 14.11923145,
        "meta_eccentricity": 0.00473296,
        "meta_inclination": 98.7756,
        "meta_ra_of_asc_node": 30.3499,
        "meta_arg_of_pericenter": 42.4945,
        "meta_mean_anomaly": 347.8007,
        "meta_ephemeris_type": 0,
        "meta_classification_type": "U",
        "meta_norad_cat_id": 31181,
        "meta_element_set_no": 999,
        "meta_rev_at_epoch": 95927,
        "meta_bstar": 0.00087568947,
        "meta_mean_motion_dot": 1.575e-05,
        "meta_mean_motion_ddot": 0,
        "tle_line1": "1 31181U 99025BJK 25358.04196890  .00001575  00000+0  87569-3 0  9994",
        "tle_line2": "2 31181  98.7756  30.3499 0047329  42.4945 347.8007 14.11923145959271"
      },
      "geometry": {
        "type": "Point",
        "coordinates": [
          -145.3596319017524,
          13.861411253827224
        ]
      }
    },
    {
      "type": "Feature",
      "properties": {
        "norad_id": 31182,
        "name": "FENGYUN 1C DEB",
        "group": "fengyun-1c-debris",
        "lat": 80.498965047723,
        "lon": -77.23323455663098,
        "alt_km": 819.7677914612404,
        "timestamp": "2025-12-26T04:40:06.067425+00:00",
        "meta_object_name": "FENGYUN 1C DEB",
        "meta_object_id": "1999-025BJL",
        "meta_epoch": "2025-12-22T19:20:53.254752",
        "meta_mean_motion": 14.1456637,
        "meta_eccentricity": 0.00235309,
        "meta_inclination": 98.6826,
        "meta_ra_of_asc_node": 345.4013,
        "meta_arg_of_pericenter": 108.6535,
        "meta_mean_anomaly": 12.2806,
        "meta_ephemeris_type": 0,
        "meta_classification_type": "U",
        "meta_norad_cat_id": 31182,
        "meta_element_set_no": 999,
        "meta_rev_at_epoch": 96223,
        "meta_bstar": 0.00031151956,
        "meta_mean_motion_dot": 5.57e-06,
        "meta_mean_motion_ddot": 0,
        "tle_line1": "1 31182U 99025BJL 25356.80617193  .00000557  00000+0  31152-3 0  9997",
        "tle_line2": "2 31182  98.6826 345.4013 0023530 108.6535  12.2806 14.14566370962235"
      },
      "geometry": {
        "type": "Point",
        "coordinates": [
          -77.23323455663098,
          80.498965047723
        ]
      }
    }
  ]
}